NORAD_CAT_ID,OBJECT_NAME,OBJECT_TYPE,EPOCH,MEAN_MOTION,ECCENTRICITY,INCLINATION,RA_OF_ASC_NODE,ARG_OF_PERICENTER,MEAN_ANOMALY,BSTAR,MEAN_MOTION_DOT,MEAN_MOTION_DDOT,TLE_LINE0,TLE_LINE1,TLE_LINE2,SEMIMAJOR_AXIS,PERIOD,APOGEE,PERIGEE,DECAYED
52871.0,STARLINK-4207,PAYLOAD,2022-12-08 14:36:05,15.08845489,0.0002359,53.2175,303.1311,31.1794,328.9338,0.00018383,2.639e-05,0.0,0 STARLINK-4207,1 52871U 22062AT  22342.60840097  .00002639  00000-0  18383-3 0  9998,2 52871  53.2175 303.1311 0002359  31.1794 328.9338 15.08845489 27348,6917.864000000001,95.437,541.361,538.097,0.0
52871.0,STARLINK-4207,PAYLOAD,2022-12-09 01:43:48,15.08834534,0.0002338,53.2179,301.0493,30.7719,329.341,3.9666e-05,3.43e-06,0.0,0 STARLINK-4207,1 52871U 22062AT  22343.07208760  .00000343  00000-0  39666-4 0  9993,2 52871  53.2179 301.0493 0002338  30.7719 329.3410 15.08834534 27412,6917.897,95.438,541.38,538.145,0.0
52871.0,STARLINK-4207,PAYLOAD,2022-12-10 04:45:21,15.08844473,0.0002867,53.2182,295.9976,7.7381,352.3655,4.4193e-05,4.15e-06,0.0,0 STARLINK-4207,1 52871U 22062AT  22344.19816711  .00000415  00000-0  44193-4 0  9999,2 52871  53.2182 295.9976 0002867   7.7381 352.3655 15.08844473 27587,6917.8669999999975,95.437,541.715,537.748,0.0
52871.0,STARLINK-4207,PAYLOAD,2022-12-10 06:20:44,15.08841374,0.0003028,53.2177,295.7003,9.2743,350.8305,9.0674e-05,1.155e-05,0.0,0 STARLINK-4207,1 52871U 22062AT  22344.26440849  .00001155  00000-0  90674-4 0  9999,2 52871  53.2177 295.7003 0003028   9.2743 350.8305 15.08841374 27109,6917.876,95.437,541.836,537.646,0.0
52871.0,STARLINK-4207,PAYLOAD,2022-12-11 01:25:22,15.08840489,0.0002283,53.2184,292.1291,33.1371,326.9764,0.0001377,1.904e-05,0.0,0 STARLINK-4207,1 52871U 22062AT  22345.05928696  .00001904  00000-0  13770-3 0  9991,2 52871  53.2184 292.1291 0002283  33.1371 326.9764 15.08840489 27224,6917.879,95.438,541.323,538.165,0.0
52871.0,STARLINK-4207,PAYLOAD,2022-12-12 02:51:33,15.0879924,0.0002309,53.2184,287.3718,41.2768,318.8399,0.00064986,0.00010058,0.0,0 STARLINK-4207,1 52871U 22062AT  22346.11914156  .00010058  00000-0  64986-3 0  9990,2 52871  53.2184 287.3718 0002309  41.2768 318.8399 15.08799240 27876,6918.005,95.44,541.467,538.273,0.0
52871.0,STARLINK-4207,PAYLOAD,2022-12-12 06:02:18,15.08847309,0.0002226,53.2186,286.7754,39.336,320.7794,-1.3049000000000003e-05,-4.96e-06,0.0,0 STARLINK-4207,1 52871U 22062AT  22346.25160644 -.00000496  00000-0 -13049-4 0  9992,2 52871  53.2186 286.7754 0002226  39.3360 320.7794 15.08847309 27898,6917.858,95.437,541.263,538.183,0.0
52871.0,STARLINK-4207,PAYLOAD,2022-12-13 04:17:43,15.0883525,0.0002448,53.218,282.6127,30.6477,329.4658,4.4772e-05,4.24e-06,0.0,0 STARLINK-4207,1 52871U 22062AT  22347.17897348  .00000424  00000-0  44772-4 0  9998,2 52871  53.2180 282.6127 0002448  30.6477 329.4658 15.08835250 28034,6917.895,95.438,541.453,538.066,0.0
52871.0,STARLINK-4207,PAYLOAD,2022-12-13 05:53:06,15.08835151,0.0002452,53.2181,282.3156,30.931,329.1827,4.1787e-05,3.77e-06,0.0,0 STARLINK-4207,1 52871U 22062AT  22347.24521373  .00000377  00000-0  41787-4 0  9998,2 52871  53.2181 282.3156 0002452  30.9310 329.1827 15.08835151 27559,6917.895,95.438,541.456,538.064,0.0
52871.0,STARLINK-4207,PAYLOAD,2022-12-13 20:11:34,15.0883534,0.0002457,53.2175,279.6399,31.5671,328.5468,-4.8142e-07,-2.96e-06,0.0,0 STARLINK-4207,1 52871U 22062AT  22347.84137639 -.00000296  00000-0 -48142-6 0  9998,2 52871  53.2175 279.6399 0002457  31.5671 328.5468 15.08835340 27646,6917.895,95.438,541.4590000000002,538.06,0.0
52871.0,STARLINK-4207,PAYLOAD,2022-12-14 04:08:31,15.08828504,0.0002484,53.2174,278.1521,32.6257,327.4889,-3.5885e-05,-8.59e-06,0.0,0 STARLINK-4207,1 52871U 22062AT  22348.17258246 -.00000859  00000-0 -35885-4 0  9996,2 52871  53.2174 278.1521 0002484  32.6257 327.4889 15.08828504 28187,6917.916,95.438,541.499,538.062,0.0
52871.0,STARLINK-4207,PAYLOAD,2022-12-14 12:05:26,15.08831893,0.0002678,53.2179,276.6674,33.3203,326.7958,-1.981e-05,-6.04e-06,0.0,0 STARLINK-4207,1 52871U 22062AT  22348.50378244 -.00000604  00000-0 -19810-4 0  9992,2 52871  53.2179 276.6674 0002678  33.3203 326.7958 15.08831893 27743,6917.905,95.438,541.623,537.918,0.0
52871.0,STARLINK-4207,PAYLOAD,2022-12-15 05:34:40,15.08838958,0.0002504,53.2175,273.396,32.4565,327.6581,8.5449e-05,1.072e-05,0.0,0 STARLINK-4207,1 52871U 22062AT  22349.23241656  .00001072  00000-0  85449-4 0  9998,2 52871  53.2175 273.3960 0002504  32.4565 327.6581 15.08838958 28348,6917.884,95.438,541.481,538.016,0.0
52871.0,STARLINK-4207,PAYLOAD,2022-12-15 11:56:13,15.08841714,0.0002519,53.2176,272.2066,33.0562,327.0587,0.00010381,1.364e-05,0.0,0 STARLINK-4207,1 52871U 22062AT  22349.49737465  .00001364  00000-0  10381-3 0  9990,2 52871  53.2176 272.2066 0002519  33.0562 327.0587 15.08841714 27897,6917.875,95.437,541.4830000000002,537.998,0.0
52871.0,STARLINK-4207,PAYLOAD,2022-12-15 19:53:08,15.08846942,0.0002468,53.2182,270.7192,32.1694,327.9448,8.5146e-05,1.067e-05,0.0,0 STARLINK-4207,1 52871U 22062AT  22349.82857202  .00001067  00000-0  85146-4 0  9991,2 52871  53.2182 270.7192 0002468  32.1694 327.9448 15.08846942 27945,6917.859,95.437,541.431,538.0169999999998,0.0
52871.0,STARLINK-4207,PAYLOAD,2022-12-16 11:47:00,15.08833185,0.0002573,53.2175,267.7464,34.1446,325.9711,0.00010258,1.344e-05,0.0,0 STARLINK-4207,1 52871U 22062AT  22350.49098196  .00001344  00000-0  10258-3 0  9994,2 52871  53.2175 267.7464 0002573  34.1446 325.9711 15.08833185 28531,6917.901,95.438,541.5459999999998,537.986,0.0
52871.0,STARLINK-4207,PAYLOAD,2022-12-16 19:43:56,15.08834138,0.0002666,53.2181,266.2596,36.243,323.8742,-2.8625e-05,-7.44e-06,0.0,0 STARLINK-4207,1 52871U 22062AT  22350.82218664 -.00000744  00000-0 -28625-4 0  9998,2 52871  53.2181 266.2596 0002666  36.2430 323.8742 15.08834138 28098,6917.898,95.438,541.6080000000002,537.919,0.0
52871.0,STARLINK-4207,PAYLOAD,2022-12-17 11:37:47,15.0884256,0.0002681,53.2186,263.2863,36.7099,323.4076,0.00010857,1.44e-05,0.0,0 STARLINK-4207,1 52871U 22062AT  22351.48457844  .00001440  00000-0  10857-3 0  9995,2 52871  53.2186 263.2863 0002681  36.7099 323.4076 15.08842560 28195,6917.873000000001,95.437,541.592,537.883,0.0
52871.0,STARLINK-4207,PAYLOAD,2022-12-18 11:28:35,15.08833832,0.0002599,53.2175,258.8254,37.93,322.1875,6.1528e-05,6.91e-06,0.0,0 STARLINK-4207,1 52871U 22062AT  22352.47818543  .00000691  00000-0  61528-4 0  9991,2 52871  53.2175 258.8254 0002599  37.9300 322.1875 15.08833832 28839,6917.899,95.438,541.562,537.966,0.0
52871.0,STARLINK-4207,PAYLOAD,2022-12-19 00:11:39,15.08843513,0.0002491,53.2171,256.447,33.9132,326.2019,0.00020208,2.93e-05,0.0,0 STARLINK-4207,1 52871U 22062AT  22353.00809649  .00002930  00000-0  20208-3 0  9995,2 52871  53.2171 256.4470 0002491  33.9132 326.2019 15.08843513 28910,6917.87,95.437,541.4580000000002,538.011,0.0
52871.0,STARLINK-4207,PAYLOAD,2022-12-20 03:13:12,15.08848974,0.0002506,53.2163,251.3896,37.2158,322.9008,0.00015276,2.144e-05,0.0,0 STARLINK-4207,1 52871U 22062AT  22354.13417225  .00002144  00000-0  15276-3 0  9991,2 52871  53.2163 251.3896 0002506  37.2158 322.9008 15.08848974 28590,6917.853,95.437,541.452,537.984,0.0
52871.0,STARLINK-4207,PAYLOAD,2022-12-20 22:17:50,15.088431699999996,0.0002325,53.2156,247.8212,34.8144,325.3,-1.8463e-05,-5.82e-06,0.0,0 STARLINK-4207,1 52871U 22062AT  22354.92905198 -.00000582  00000-0 -18463-4 0  9997,2 52871  53.2156 247.8212 0002325  34.8144 325.3000 15.08843170 29202,6917.871,95.437,541.344,538.127,0.0
52871.0,STARLINK-4207,PAYLOAD,2022-12-21 04:39:23,15.08829267,0.0002412,53.2169,246.6333,35.0081,325.107,-0.00014359,-2.572e-05,0.0,0 STARLINK-4207,1 52871U 22062AT  22355.19402738 -.00002572  00000-0 -14359-3 0  9999,2 52871  53.2169 246.6333 0002412  35.0081 325.1070 15.08829267 29247,6917.913000000001,95.438,541.447,538.11,0.0
52871.0,STARLINK-4207,PAYLOAD,2022-12-21 09:25:33,15.08833194,0.0002415,53.2166,245.7417,34.8929,325.2221,-0.00010113,-1.897e-05,0.0,0 STARLINK-4207,1 52871U 22062AT  22355.39274432 -.00001897  00000-0 -10113-3 0  9992,2 52871  53.2166 245.7417 0002415  34.8929 325.2221 15.08833194 28789,6917.901,95.438,541.437,538.096,0.0
52871.0,STARLINK-4207,PAYLOAD,2022-12-22 09:16:21,15.088294400000002,0.0002391,53.2169,241.2816,36.5163,323.5992,-7.4492e-05,-1.473e-05,0.0,0 STARLINK-4207,1 52871U 22062AT  22356.38635515 -.00001473  00000-0 -74492-4 0  9996,2 52871  53.2169 241.2816 0002391  36.5163 323.5992 15.08829440 29425,6917.913000000001,95.438,541.432,538.124,0.0
52871.0,STARLINK-4207,PAYLOAD,2022-12-22 17:13:16,15.08816603,0.0002376,53.2172,239.7947,36.0601,324.0551,0.0002203,3.217e-05,0.0,0 STARLINK-4207,1 52871U 22062AT  22356.71755579  .00003217  00000-0  22030-3 0  9992,2 52871  53.2172 239.7947 0002376  36.0601 324.0551 15.08816603 28985,6917.9519999999975,95.439,541.461,538.173,0.0
52871.0,STARLINK-4207,PAYLOAD,2022-12-23 01:10:12,15.08833016,0.0002415,53.2171,238.308,34.2345,325.8802,0.00015544,2.186e-05,0.0,0 STARLINK-4207,1 52871U 22062AT  22357.04875272  .00002186  00000-0  15544-3 0  9998,2 52871  53.2171 238.3080 0002415  34.2345 325.8802 15.08833016 29522,6917.901999999999,95.438,541.437,538.096,0.0
52871.0,STARLINK-4207,PAYLOAD,2022-12-23 09:07:08,15.08831277,0.0002572,53.2171,236.8213,35.0526,325.0635,0.00024155,3.557e-05,0.0,0 STARLINK-4207,1 52871U 22062AT  22357.37995433  .00003557  00000-0  24155-3 0  9997,2 52871  53.2171 236.8213 0002572  35.0526 325.0635 15.08831277 29081,6917.906999999997,95.438,541.5509999999998,537.993,0.0
52871.0,STARLINK-4207,PAYLOAD,2022-12-23 17:04:04,15.08836655,0.0002642,53.2171,235.3339,35.8143,324.3026,3.6249e-06,-2.31e-06,0.0,0 STARLINK-4207,1 52871U 22062AT  22357.71115836 -.00000231  00000-0  36249-5 0  9992,2 52871  53.2171 235.3339 0002642  35.8143 324.3026 15.08836655 29132,6917.891,95.438,541.5830000000002,537.928,0.0
